{
  "norad_id": 68341,
  "name": "STARLINK-37181",
  "history": [
    {
      "epoch": "2026-03-31T16:00:01.999584Z",
      "apogee_km": 323.398845515645,
      "perigee_km": 322.157835994537,
      "latitude_deg": -47.80046186074464,
      "longitude_deg": 128.28186995483398,
      "height_km": 339.610944650476,
      "semi_major_axis_km": 6700.91534075509,
      "eccentricity": 9.26e-05,
      "inclination_deg": 53.1594,
      "raan_deg": 252.5782,
      "arg_perigee_deg": 73.824,
      "mean_anomaly_deg": 218.8218,
      "mean_motion_rev_day": 15.82710798
    }
  ]
}